EUTELSAT QUANTUM        
1 49056U 21069B   25236.88098062  .00000115  00000+0  00000+0 0  9996
2 49056   0.0151 317.3562 0001872 216.7504 164.1149  1.00272753 14955
EUTELSAT KONNECT VHTS   
1 53765U 22110A   25236.88817378  .00000006  00000+0  00000+0 0  9994
2 53765   0.0571 103.7385 0002609  40.8815 151.2330  1.00270916  3858
EUTELSAT HOTBIRD 13F    
1 54048U 22134A   25236.91503096  .00000076  00000+0  00000+0 0  9995
2 54048   0.0562 293.7359 0001984  66.4243 315.6766  1.00271850 10404
EUTELSAT HOTBIRD 13G    
1 54225U 22146A   25236.95493584  .00000076  00000+0  00000+0 0  9999
2 54225   0.0527 237.7447 0002011 302.3700 150.1123  1.00271996  4492
EUTELSAT 10B            
1 54259U 22157A   25236.88964712  .00000057  00000+0  00000+0 0  9995
2 54259   0.0554 101.6012 0001230   4.3196 197.7206  1.00271853 10045
EUTELSAT 36D            
1 59346U 24059A   25236.94317758  .00000000  00000+0  00000+0 0  9997
2 59346   0.0253 138.6370 0000223 295.0311 275.1956  1.00267172  5179
